HULIANWANG DIGUI-97     
1 66413U 25258B   26062.16091038 -.00000052  00000+0  15598-3 0  9994
2 66413  50.0021 316.1646 0000384  91.3304 268.7612 13.29332077 15625
HULIANWANG DIGUI-98     
1 66414U 25258C   26062.15253320 -.00000052  00000+0  15559-3 0  9995
2 66414  50.0058 316.1623 0000428 104.5015 255.5904 13.29333616 15624
HULIANWANG DIGUI-99     
1 66415U 25258D   26062.19432227 -.00000049  00000+0  16266-3 0  9997
2 66415  50.0056 315.7134 0000313  82.8944 277.1964 13.29331232 15625
HULIANWANG DIGUI-100    
1 66416U 25258E   26062.14418572 -.00000047  00000+0  16674-3 0  9991
2 66416  50.0060 316.1213 0000292  79.1048 280.9857 13.29334148 15637
HULIANWANG DIGUI-101    
1 66417U 25258F   26062.13584325 -.00000045  00000+0  16998-3 0  9998
2 66417  50.0009 316.0201 0000325  75.1670 284.9238 13.29332350 15631
HULIANWANG DIGUI-102    
1 66418U 25258G   26062.18593460 -.00000052  00000+0  15535-3 0  9998
2 66418  50.0024 315.6306 0000337  98.0958 261.9952 13.29334353 15639
HULIANWANG DIGUI-103    
1 66419U 25258H   26062.17760027 -.00000055  00000+0  14843-3 0  9997
2 66419  50.0017 315.5793 0000265  76.3053 283.7849 13.29333351 15630
HULIANWANG DIGUI-104    
1 66420U 25258J   26062.16926038 -.00000055  00000+0  14815-3 0  9993
2 66420  50.0034 315.5582 0000359 102.0856 258.0056 13.29332728 15620
HULIANWANG DIGUI-105    
1 66915U 25285A   26062.09798023 -.00000077  00000+0  10135-3 0  9990
2 66915  50.0043 166.7044 0000048 305.9305  54.1562 13.29331682 11942
HULIANWANG DIGUI-106    
1 66916U 25285B   26061.86409256 -.00604047  00000+0 -13537+1 0  9996
2 66916  50.0004 167.5013 0008511  17.7764 342.3405 13.29442885 11918
HULIANWANG DIGUI-107    
1 66917U 25285C   26062.15645726 -.00000082  00000+0  91057-4 0  9999
2 66917  50.0021 166.3307 0000027 343.3809  16.7062 13.29331261 11953
HULIANWANG DIGUI-108    
1 66918U 25285D   26062.14809631 -.00000105  00000+0  41018-4 0  9994
2 66918  50.0041 166.3036 0000026   1.5726 358.5146 13.29331780 11951
HULIANWANG DIGUI-109    
1 66919U 25285E   26062.13974314 -.00000080  00000+0  95292-4 0  9990
2 66919  50.0066 166.2797 0000016 357.4103   2.6769 13.29331662 11961
HULIANWANG DIGUI-110    
1 66920U 25285F   26062.20657353 -.00000065  00000+0  12628-3 0  9995
2 66920  50.0098 165.9920 0000032 333.0843  27.0028 13.29331289 11965
HULIANWANG DIGUI-111    
1 66921U 25285G   26062.12303921 -.00000082  00000+0  90863-4 0  9993
2 66921  50.0114 166.2310 0000034 352.5405   7.5467 13.29331251 11952
HULIANWANG DIGUI-112    
1 66922U 25285H   26062.11468793 -.00000077  00000+0  10125-3 0  9998
2 66922  50.0076 166.1607 0000030  44.2789 315.8086 13.29331436 11951
