[{"OBJECT_NAME":"HULIANWANG DIGUI-97","OBJECT_ID":"2025-258B","EPOCH":"2026-03-03T03:51:42.656832","MEAN_MOTION":13.29332077,"ECCENTRICITY":3.84e-5,"INCLINATION":50.0021,"RA_OF_ASC_NODE":316.1646,"ARG_OF_PERICENTER":91.3304,"MEAN_ANOMALY":268.7612,"EPHEMERIS_TYPE":0,"CLASSIFICATION_TYPE":"U","NORAD_CAT_ID":66413,"ELEMENT_SET_NO":999,"REV_AT_EPOCH":1562,"BSTAR":0.00015598,"MEAN_MOTION_DOT":-5.2e-7,"MEAN_MOTION_DDOT":0},{"OBJECT_NAME":"HULIANWANG DIGUI-98","OBJECT_ID":"2025-258C","EPOCH":"2026-03-03T03:39:38.868480","MEAN_MOTION":13.29333616,"ECCENTRICITY":4.28e-5,"INCLINATION":50.0058,"RA_OF_ASC_NODE":316.1623,"ARG_OF_PERICENTER":104.5015,"MEAN_ANOMALY":255.5904,"EPHEMERIS_TYPE":0,"CLASSIFICATION_TYPE":"U","NORAD_CAT_ID":66414,"ELEMENT_SET_NO":999,"REV_AT_EPOCH":1562,"BSTAR":0.00015559,"MEAN_MOTION_DOT":-5.2e-7,"MEAN_MOTION_DDOT":0},{"OBJECT_NAME":"HULIANWANG DIGUI-99","OBJECT_ID":"2025-258D","EPOCH":"2026-03-03T04:39:49.444128","MEAN_MOTION":13.29331232,"ECCENTRICITY":3.13e-5,"INCLINATION":50.0056,"RA_OF_ASC_NODE":315.7134,"ARG_OF_PERICENTER":82.8944,"MEAN_ANOMALY":277.1964,"EPHEMERIS_TYPE":0,"CLASSIFICATION_TYPE":"U","NORAD_CAT_ID":66415,"ELEMENT_SET_NO":999,"REV_AT_EPOCH":1562,"BSTAR":0.00016266,"MEAN_MOTION_DOT":-4.9e-7,"MEAN_MOTION_DDOT":0},{"OBJECT_NAME":"HULIANWANG DIGUI-100","OBJECT_ID":"2025-258E","EPOCH":"2026-03-03T03:27:37.646208","MEAN_MOTION":13.29334148,"ECCENTRICITY":2.92e-5,"INCLINATION":50.006,"RA_OF_ASC_NODE":316.1213,"ARG_OF_PERICENTER":79.1048,"MEAN_ANOMALY":280.9857,"EPHEMERIS_TYPE":0,"CLASSIFICATION_TYPE":"U","NORAD_CAT_ID":66416,"ELEMENT_SET_NO":999,"REV_AT_EPOCH":1563,"BSTAR":0.00016674,"MEAN_MOTION_DOT":-4.7e-7,"MEAN_MOTION_DDOT":0},{"OBJECT_NAME":"HULIANWANG DIGUI-101","OBJECT_ID":"2025-258F","EPOCH":"2026-03-03T03:15:36.856800","MEAN_MOTION":13.2933235,"ECCENTRICITY":3.25e-5,"INCLINATION":50.0009,"RA_OF_ASC_NODE":316.0201,"ARG_OF_PERICENTER":75.167,"MEAN_ANOMALY":284.9238,"EPHEMERIS_TYPE":0,"CLASSIFICATION_TYPE":"U","NORAD_CAT_ID":66417,"ELEMENT_SET_NO":999,"REV_AT_EPOCH":1563,"BSTAR":0.00016998,"MEAN_MOTION_DOT":-4.5e-7,"MEAN_MOTION_DDOT":0},{"OBJECT_NAME":"HULIANWANG DIGUI-102","OBJECT_ID":"2025-258G","EPOCH":"2026-03-03T04:27:44.749440","MEAN_MOTION":13.29334353,"ECCENTRICITY":3.37e-5,"INCLINATION":50.0024,"RA_OF_ASC_NODE":315.6306,"ARG_OF_PERICENTER":98.0958,"MEAN_ANOMALY":261.9952,"EPHEMERIS_TYPE":0,"CLASSIFICATION_TYPE":"U","NORAD_CAT_ID":66418,"ELEMENT_SET_NO":999,"REV_AT_EPOCH":1563,"BSTAR":0.00015535,"MEAN_MOTION_DOT":-5.2e-7,"MEAN_MOTION_DDOT":0},{"OBJECT_NAME":"HULIANWANG DIGUI-103","OBJECT_ID":"2025-258H","EPOCH":"2026-03-03T04:15:44.663328","MEAN_MOTION":13.29333351,"ECCENTRICITY":2.65e-5,"INCLINATION":50.0017,"RA_OF_ASC_NODE":315.5793,"ARG_OF_PERICENTER":76.3053,"MEAN_ANOMALY":283.7849,"EPHEMERIS_TYPE":0,"CLASSIFICATION_TYPE":"U","NORAD_CAT_ID":66419,"ELEMENT_SET_NO":999,"REV_AT_EPOCH":1563,"BSTAR":0.00014843,"MEAN_MOTION_DOT":-5.5e-7,"MEAN_MOTION_DDOT":0},{"OBJECT_NAME":"HULIANWANG DIGUI-104","OBJECT_ID":"2025-258J","EPOCH":"2026-03-03T04:03:44.096832","MEAN_MOTION":13.29332728,"ECCENTRICITY":3.59e-5,"INCLINATION":50.0034,"RA_OF_ASC_NODE":315.5582,"ARG_OF_PERICENTER":102.0856,"MEAN_ANOMALY":258.0056,"EPHEMERIS_TYPE":0,"CLASSIFICATION_TYPE":"U","NORAD_CAT_ID":66420,"ELEMENT_SET_NO":999,"REV_AT_EPOCH":1562,"BSTAR":0.00014815,"MEAN_MOTION_DOT":-5.5e-7,"MEAN_MOTION_DDOT":0},{"OBJECT_NAME":"HULIANWANG DIGUI-105","OBJECT_ID":"2025-285A","EPOCH":"2026-03-03T02:21:05.491872","MEAN_MOTION":13.29331682,"ECCENTRICITY":4.8e-6,"INCLINATION":50.0043,"RA_OF_ASC_NODE":166.7044,"ARG_OF_PERICENTER":305.9305,"MEAN_ANOMALY":54.1562,"EPHEMERIS_TYPE":0,"CLASSIFICATION_TYPE":"U","NORAD_CAT_ID":66915,"ELEMENT_SET_NO":999,"REV_AT_EPOCH":1194,"BSTAR":0.00010135,"MEAN_MOTION_DOT":-7.7e-7,"MEAN_MOTION_DDOT":0},{"OBJECT_NAME":"HULIANWANG DIGUI-106","OBJECT_ID":"2025-285B","EPOCH":"2026-03-02T20:44:17.597184","MEAN_MOTION":13.29442885,"ECCENTRICITY":0.0008511,"INCLINATION":50.0004,"RA_OF_ASC_NODE":167.5013,"ARG_OF_PERICENTER":17.7764,"MEAN_ANOMALY":342.3405,"EPHEMERIS_TYPE":0,"CLASSIFICATION_TYPE":"U","NORAD_CAT_ID":66916,"ELEMENT_SET_NO":999,"REV_AT_EPOCH":1191,"BSTAR":-1.3537,"MEAN_MOTION_DOT":-0.00604047,"MEAN_MOTION_DDOT":0},{"OBJECT_NAME":"HULIANWANG DIGUI-107","OBJECT_ID":"2025-285C","EPOCH":"2026-03-03T03:45:17.907264","MEAN_MOTION":13.29331261,"ECCENTRICITY":2.7e-6,"INCLINATION":50.0021,"RA_OF_ASC_NODE":166.3307,"ARG_OF_PERICENTER":343.3809,"MEAN_ANOMALY":16.7062,"EPHEMERIS_TYPE":0,"CLASSIFICATION_TYPE":"U","NORAD_CAT_ID":66917,"ELEMENT_SET_NO":999,"REV_AT_EPOCH":1195,"BSTAR":9.1057e-5,"MEAN_MOTION_DOT":-8.2e-7,"MEAN_MOTION_DDOT":0},{"OBJECT_NAME":"HULIANWANG DIGUI-108","OBJECT_ID":"2025-285D","EPOCH":"2026-03-03T03:33:15.521184","MEAN_MOTION":13.2933178,"ECCENTRICITY":2.6e-6,"INCLINATION":50.0041,"RA_OF_ASC_NODE":166.3036,"ARG_OF_PERICENTER":1.5726,"MEAN_ANOMALY":358.5146,"EPHEMERIS_TYPE":0,"CLASSIFICATION_TYPE":"U","NORAD_CAT_ID":66918,"ELEMENT_SET_NO":999,"REV_AT_EPOCH":1195,"BSTAR":4.1018e-5,"MEAN_MOTION_DOT":-1.05e-6,"MEAN_MOTION_DDOT":0},{"OBJECT_NAME":"HULIANWANG DIGUI-109","OBJECT_ID":"2025-285E","EPOCH":"2026-03-03T03:21:13.807296","MEAN_MOTION":13.29331662,"ECCENTRICITY":1.6e-6,"INCLINATION":50.0066,"RA_OF_ASC_NODE":166.2797,"ARG_OF_PERICENTER":357.4103,"MEAN_ANOMALY":2.6769,"EPHEMERIS_TYPE":0,"CLASSIFICATION_TYPE":"U","NORAD_CAT_ID":66919,"ELEMENT_SET_NO":999,"REV_AT_EPOCH":1196,"BSTAR":9.5292e-5,"MEAN_MOTION_DOT":-8.0e-7,"MEAN_MOTION_DDOT":0},{"OBJECT_NAME":"HULIANWANG DIGUI-110","OBJECT_ID":"2025-285F","EPOCH":"2026-03-03T04:57:27.952992","MEAN_MOTION":13.29331289,"ECCENTRICITY":3.2e-6,"INCLINATION":50.0098,"RA_OF_ASC_NODE":165.992,"ARG_OF_PERICENTER":333.0843,"MEAN_ANOMALY":27.0028,"EPHEMERIS_TYPE":0,"CLASSIFICATION_TYPE":"U","NORAD_CAT_ID":66920,"ELEMENT_SET_NO":999,"REV_AT_EPOCH":1196,"BSTAR":0.00012628,"MEAN_MOTION_DOT":-6.5e-7,"MEAN_MOTION_DDOT":0},{"OBJECT_NAME":"HULIANWANG DIGUI-111","OBJECT_ID":"2025-285G","EPOCH":"2026-03-03T02:57:10.587744","MEAN_MOTION":13.29331251,"ECCENTRICITY":3.4e-6,"INCLINATION":50.0114,"RA_OF_ASC_NODE":166.231,"ARG_OF_PERICENTER":352.5405,"MEAN_ANOMALY":7.5467,"EPHEMERIS_TYPE":0,"CLASSIFICATION_TYPE":"U","NORAD_CAT_ID":66921,"ELEMENT_SET_NO":999,"REV_AT_EPOCH":1195,"BSTAR":9.0863e-5,"MEAN_MOTION_DOT":-8.2e-7,"MEAN_MOTION_DDOT":0},{"OBJECT_NAME":"HULIANWANG DIGUI-112","OBJECT_ID":"2025-285H","EPOCH":"2026-03-03T02:45:09.037152","MEAN_MOTION":13.29331436,"ECCENTRICITY":3.0e-6,"INCLINATION":50.0076,"RA_OF_ASC_NODE":166.1607,"ARG_OF_PERICENTER":44.2789,"MEAN_ANOMALY":315.8086,"EPHEMERIS_TYPE":0,"CLASSIFICATION_TYPE":"U","NORAD_CAT_ID":66922,"ELEMENT_SET_NO":999,"REV_AT_EPOCH":1195,"BSTAR":0.00010125,"MEAN_MOTION_DOT":-7.7e-7,"MEAN_MOTION_DDOT":0}]
